{
    "links": {
        "self": "http://www.neowsapp.com/rest/v1/neo/3179359?api_key=iIulBulltgU6a56xZRHN4H3l9WmuAYTsLGpBGhQ2"
    },
    "id": "3179359",
    "neo_reference_id": "3179359",
    "name": "(2004 GB19)",
    "designation": "2004 GB19",
    "nasa_jpl_url": "http://ssd.jpl.nasa.gov/sbdb.cgi?sstr=3179359",
    "absolute_magnitude_h": 23.0,
    "estimated_diameter": {
        "kilometers": {
            "estimated_diameter_min": 0.0667659413,
            "estimated_diameter_max": 0.1492931834
        },
        "meters": {
            "estimated_diameter_min": 66.7659413495,
            "estimated_diameter_max": 149.2931834393
        },
        "miles": {
            "estimated_diameter_min": 0.0414864197,
            "estimated_diameter_max": 0.0927664547
        },
        "feet": {
            "estimated_diameter_min": 219.0483710172,
            "estimated_diameter_max": 489.807047955
        }
    },
    "is_potentially_hazardous_asteroid": false,
    "close_approach_data": [
        {
            "close_approach_date": "2000-11-04",
            "close_approach_date_full": "2000-Nov-04 01:20",
            "epoch_date_close_approach": 973300800000,
            "relative_velocity": {
                "kilometers_per_second": "22.9745865637",
                "kilometers_per_hour": "82708.5116291515",
                "miles_per_hour": "51391.8526842358"
            },
            "miss_distance": {
                "astronomical": "0.4751892141",
                "lunar": "184.8486042849",
                "kilometers": "71087294.276333967",
                "miles": "44171596.3991720646"
            },
            "orbiting_body": "Earth"
        },
        {
            "close_approach_date": "2003-10-17",
            "close_approach_date_full": "2003-Oct-17 09:48",
            "epoch_date_close_approach": 1066384080000,
            "relative_velocity": {
                "kilometers_per_second": "6.9772313102",
                "kilometers_per_hour": "25118.0327167543",
                "miles_per_hour": "15607.3687178077"
            },
            "miss_distance": {
                "astronomical": "0.4720784784",
                "lunar": "183.6385280976",
                "kilometers": "70621934.841481008",
                "miles": "43882435.4549255904"
            },
            "orbiting_body": "Earth"
        },
        {
            "close_approach_date": "2004-04-04",
            "close_approach_date_full": "2004-Apr-04 05:34",
            "epoch_date_close_approach": 1081056840000,
            "relative_velocity": {
                "kilometers_per_second": "9.684066213",
                "kilometers_per_hour": "34862.6383668327",
                "miles_per_hour": "21662.28771188"
            },
            "miss_distance": {
                "astronomical": "0.0339542122",
                "lunar": "13.2081885458",
                "kilometers": "5079477.822648014",
                "miles": "3156241.1621460332"
            },
            "orbiting_body": "Earth"
        },
        {
            "close_approach_date": "2010-10-26",
            "close_approach_date_full": "2010-Oct-26 01:32",
            "epoch_date_close_approach": 1288056720000,
            "relative_velocity": {
                "kilometers_per_second": "11.3107490275",
                "kilometers_per_hour": "40718.6964989939",
                "miles_per_hour": "25301.0144996109"
            },
            "miss_distance": {
                "astronomical": "0.0594417072",
                "lunar": "23.1228241008",
                "kilometers": "8892352.786283664",
                "miles": "5525451.8027920032"
            },
            "orbiting_body": "Mars"
        }
    ],
    "orbital_data": {
        "orbit_id": "14",
        "orbit_determination_date": "2017-04-06 09:12:56",
        "first_observation_date": "2004-04-15",
        "last_observation_date": "2004-05-06",
        "data_arc_in_days": 21,
        "observations_used": 50,
        "orbit_uncertainty": "8",
        "minimum_orbit_intersection": ".0105668",
        "jupiter_tisserand_invariant": "4.784",
        "epoch_osculation": "2453115.5",
        "eccentricity": ".3660684842281395",
        "semi_major_axis": "1.357149444148369",
        "inclination": "1.279737200411569",
        "ascending_node_longitude": "163.0371903119575",
        "orbital_period": "577.4839742094551",
        "perihelion_distance": ".8603398042579133",
        "perihelion_argument": "327.1471001489944",
        "aphelion_distance": "1.853959084038824",
        "perihelion_time": "2453051.184635704520",
        "mean_anomaly": "40.09380724039789",
        "mean_motion": ".62339392273668",
        "equinox": "J2000",
        "orbit_class": {
            "orbit_class_type": "APO",
            "orbit_class_description": "Near-Earth asteroid orbits which cross the Earth’s orbit similar to that of 1862 Apollo",
            "orbit_class_range": "a (semi-major axis) > 1.0 AU; q (perihelion) < 1.017 AU"
        }
    },
    "is_sentry_object": false
}